IRIDIUM 106             
1 41917U 17003A   25227.36984116 -.00000038  00000+0 -20666-4 0  9995
2 41917  86.3968 216.2688 0002228 100.7982 259.3465 14.34217054449370
IRIDIUM 103             
1 41918U 17003B   25227.49669047 -.00000010  00000+0 -10484-4 0  9990
2 41918  86.3968 216.1163 0001593  88.6475 271.4903 14.34217504449410
IRIDIUM 109             
1 41919U 17003C   25227.43326627  .00000005  00000+0 -54436-5 0  9998
2 41919  86.3967 216.1972 0002130  85.0239 275.1200 14.34217572449376
IRIDIUM 102             
1 41920U 17003D   25227.47132230  .00000003  00000+0 -58161-5 0  9996
2 41920  86.3967 216.1115 0002266  85.3852 274.7602 14.34217494449465
IRIDIUM 105             
1 41921U 17003E   25227.58159859  .00000303  00000+0  10099-3 0  9993
2 41921  86.4023 184.5596 0002138  85.8635 274.2805 14.34217246451337
IRIDIUM 104             
1 41922U 17003F   25227.48400550  .00000032  00000+0  43747-5 0  9997
2 41922  86.3965 216.1439 0002051  79.4983 280.6443 14.34217862449452
IRIDIUM 114             
1 41923U 17003G   25227.49034886  .00000004  00000+0 -56699-5 0  9994
2 41923  86.3967 216.1256 0001931  90.8948 269.2469 14.34217569449439
IRIDIUM 108             
1 41924U 17003H   25227.58840896  .00000151  00000+0  46816-4 0  9992
2 41924  86.4019 184.4544 0002438  87.9083 272.2392 14.34218028451305
